ONEWEB-0645             
1 55809U 23029P   25209.42767252 -.00000004  00000+0 -41102-4 0  9993
2 55809  87.9216   9.3504 0002169  92.1143 268.0239 13.19724484116204
ONEWEB-0646             
1 55810U 23029Q   25209.45769260  .00000046  00000+0  82683-4 0  9992
2 55810  87.9217   9.3354 0001844  85.7798 274.3545 13.19725052116193
ONEWEB-0648             
1 55811U 23029R   25209.45957321  .00000128  00000+0  31191-3 0  9998
2 55811  87.9063 354.1283 0002623  81.5594 278.5833 13.14501729116867
ONEWEB-0649             
1 55812U 23029S   25209.49637786  .00000005  00000+0 -18635-4 0  9997
2 55812  87.9230   9.3211 0002260  85.4720 274.6671 13.19726782116236
ONEWEB-0650             
1 55813U 23029T   25209.49163718  .00000044  00000+0  78377-4 0  9998
2 55813  87.9232   9.3325 0001909  88.1806 271.9545 13.19726542116200
ONEWEB-0652             
1 55814U 23029U   25209.44052741 -.00000097  00000+0 -29501-3 0  9991
2 55814  87.9067 354.1423 0001724 100.8743 259.2580 13.14504108116838
ONEWEB-0653             
1 55815U 23029V   25209.42467557 -.00000091  00000+0 -28094-3 0  9995
2 55815  87.9067 354.1353 0001936 102.5425 257.5922 13.14501960116869
ONEWEB-0654             
1 55816U 23029W   25209.41991497 -.00000037  00000+0 -13350-3 0  9999
2 55816  87.9063 354.1354 0001729 109.3668 250.7648 13.14502197116886
